NORAD_CAT_ID,OBJECT_NAME,OBJECT_TYPE,EPOCH,MEAN_MOTION,ECCENTRICITY,INCLINATION,RA_OF_ASC_NODE,ARG_OF_PERICENTER,MEAN_ANOMALY,BSTAR,MEAN_MOTION_DOT,MEAN_MOTION_DDOT,TLE_LINE0,TLE_LINE1,TLE_LINE2,SEMIMAJOR_AXIS,PERIOD,APOGEE,PERIGEE,DECAYED
53891.0,STARLINK-5041,PAYLOAD,2022-11-01 14:00:01,15.73192724,0.0002065999999999,53.2156,66.8453,28.423,213.8061,0.0002624,0.00036355,0.0,0 STARLINK-5041,1 53891U 22119F   22305.58334491  .00036355  00000-0  26240-3 0  9999,2 53891  53.2156  66.8453 0002066  28.4230 213.8061 15.73192724  1301,6727.916,91.534,351.171,348.391,0.0
53891.0,STARLINK-5041,PAYLOAD,2022-11-01 20:00:01,15.73231212,0.0002153,53.2153,65.6086,24.3104,194.616,-0.0002161,-0.00030882,0.0,0 STARLINK-5041,1 53891U 22119F   22305.83334491 -.00030882  00000-0 -21610-3 0  9994,2 53891  53.2153  65.6086 0002153  24.3104 194.6160 15.73231212  6395,6727.806,91.531,351.12,348.223,0.0
53891.0,STARLINK-5041,PAYLOAD,2022-11-01 22:00:00,15.73248838,0.0002131999999999,53.2152,65.1957,24.0051,307.1568,-0.00062074,-0.00087033,0.0,0 STARLINK-5041,1 53891U 22119F   22305.91667824 -.00087033  00000-0 -62074-3 0  9991,2 53891  53.2152  65.1957 0002132  24.0051 307.1568 15.73248838  1302,6727.755999999999,91.53,351.055,348.18699999999984,0.0
53891.0,STARLINK-5041,PAYLOAD,2022-11-02 14:00:01,15.73162424,0.0002171999999999,53.2157,61.8956,21.8926,127.1185,0.00043436,0.00060686,0.0,0 STARLINK-5041,1 53891U 22119F   22306.58334491  .00060686  00000-0  43436-3 0  9990,2 53891  53.2157  61.8956 0002172  21.8926 127.1185 15.73162424  1300,6728.002,91.535,351.329,348.406,0.0
53891.0,STARLINK-5041,PAYLOAD,2022-11-02 18:00:02,15.73163167,0.0002293,53.2159,61.0659,22.4617,351.0704,0.00086165,0.0012189,0.0,0 STARLINK-5041,1 53891U 22119F   22306.75002315  .00121890  00000-0  86165-3 0  9997,2 53891  53.2159  61.0659 0002293  22.4617 351.0704 15.73163167  6532,6728.0,91.535,351.408,348.32199999999995,0.0
53891.0,STARLINK-5041,PAYLOAD,2022-11-02 22:00:00,15.73223062,0.0002232,53.2153,60.247,19.5295,218.3565,0.00034054,0.00047493,0.0,0 STARLINK-5041,1 53891U 22119F   22306.91667824  .00047493  00000-0  34054-3 0  9993,2 53891  53.2153  60.2470 0002232  19.5295 218.3565 15.73223062  1301,6727.829000000002,91.532,351.196,348.1930000000001,0.0
53891.0,STARLINK-5041,PAYLOAD,2022-11-03 04:00:00,15.73250169,0.0002062,53.2158,59.0082,18.7765,195.8376,0.00010612,0.0001433,0.0,0 STARLINK-5041,1 53891U 22119F   22307.16667824  .00014330  00000-0  10612-3 0  9999,2 53891  53.2158  59.0082 0002062  18.7765 195.8376 15.73250169  6600,6727.752,91.53,351.004,348.23,0.0
53891.0,STARLINK-5041,PAYLOAD,2022-11-03 14:00:01,15.7333151,0.0002264,53.2163,56.9408,9.193,46.6845,-0.0011143,-0.00155053,0.0,0 STARLINK-5041,1 53891U 22119F   22307.58334491 -.00155053  00000-0 -11143-2 0  9995,2 53891  53.2163  56.9408 0002264   9.1930  46.6845 15.73331510  1302,6727.52,91.526,350.908,347.862,0.0
53891.0,STARLINK-5041,PAYLOAD,2022-11-03 22:00:00,15.73067677,0.0002084,53.2163,55.2826,327.9618,176.9964,-0.003746,-0.00493908,0.0,0 STARLINK-5041,1 53891U 22119F   22307.91667824 -.00493908  00000-0 -37460-2 0  9995,2 53891  53.2163  55.2826 0002084 327.9618 176.9964 15.73067677  6722,6728.272,91.541,351.54,348.735,0.0
53891.0,STARLINK-5041,PAYLOAD,2022-11-04 06:00:00,15.72884486,0.0003438,53.2173,53.6243,280.2027,313.302,-0.0092345,-0.01141232,0.0,0 STARLINK-5041,1 53891U 22119F   22308.25001157 -.01141232  00000-0 -92345-2 0  9998,2 53891  53.2173  53.6243 0003438 280.2027 313.3020 15.72884486  6776,6728.795,91.552,352.973,348.347,0.0
53891.0,STARLINK-5041,PAYLOAD,2022-11-04 14:00:01,15.72066736,0.0006251,53.2172,51.9787,271.7406,49.8015,-0.009505,-0.01136697,0.0,0 STARLINK-5041,1 53891U 22119F   22308.58334491 -.01136697  00000-0 -95050-2 0  9999,2 53891  53.2172  51.9787 0006251 271.7406  49.8015 15.72066736  1300,6731.128000000002,91.599,357.201,348.785,0.0
53891.0,STARLINK-5041,PAYLOAD,2022-11-04 22:00:01,15.71248182,0.0006812,53.2172,50.3322,270.6824,137.9857,-0.0097505,-0.01127562,0.0,0 STARLINK-5041,1 53891U 22119F   22308.91668981 -.01127562  00000-0 -97505-2 0  9998,2 53891  53.2172  50.3322 0006812 270.6824 137.9857 15.71248182  6880,6733.465999999999,91.647,359.917,350.744,0.0
53891.0,STARLINK-5041,PAYLOAD,2022-11-05 12:00:00,15.6985547,0.0001528,53.2173,47.4603,310.2518,158.3339,-0.010795,-0.01188127,0.0,0 STARLINK-5041,1 53891U 22119F   22309.50001157 -.01188127  00000-0 -10795-1 0  9999,2 53891  53.2173  47.4603 0001528 310.2518 158.3339 15.69855470  6973,6737.448,91.728,360.342,358.283,0.0
53891.0,STARLINK-5041,PAYLOAD,2022-11-05 14:00:01,15.69619708,0.0001027,53.2175,47.0493,332.5587,247.2919,-0.010439,-0.01123728,0.0,0 STARLINK-5041,1 53891U 22119F   22309.58335648 -.01123728  00000-0 -10439-1 0  9993,2 53891  53.2175  47.0493 0001027 332.5587 247.2919 15.69619708  1301,6738.121999999999,91.742,360.679,359.295,0.0
53891.0,STARLINK-5041,PAYLOAD,2022-11-05 22:00:01,15.68833266,0.0001296999999999,53.217,45.4086,40.731,263.2325,-0.011176,-0.0117951,0.0,0 STARLINK-5041,1 53891U 22119F   22309.91668981 -.01179510  00000-0 -11176-1 0  9998,2 53891  53.2170  45.4086 0001297  40.7310 263.2325 15.68833266  1302,6740.374,91.788,363.11300000000006,361.365,0.0
53891.0,STARLINK-5041,PAYLOAD,2022-11-06 06:00:00,15.67989229,0.0001306,53.2175,43.7676,43.3302,343.7309,-0.011107,-0.01136389,0.0,0 STARLINK-5041,1 53891U 22119F   22310.25001157 -.01136389  00000-0 -11107-1 0  9994,2 53891  53.2175  43.7676 0001306  43.3302 343.7309 15.67989229  7092,6742.792,91.837,365.538,363.777,0.0
53891.0,STARLINK-5041,PAYLOAD,2022-11-06 14:00:01,15.67197277,0.0001321,53.2174,42.1352,59.9387,49.2792,-0.0118,-0.01165594,0.0,0 STARLINK-5041,1 53891U 22119F   22310.58334491 -.01165594  00000-0 -11800-1 0  9990,2 53891  53.2174  42.1352 0001321  59.9387  49.2792 15.67197277  1304,6745.064,91.884,367.82,366.038,0.0
53891.0,STARLINK-5041,PAYLOAD,2022-11-06 20:00:01,15.66644707,0.0001409,53.2165,40.9094,41.0201,39.1533,-0.012919,-0.01239363,0.0,0 STARLINK-5041,1 53891U 22119F   22310.83334491 -.01239363  00000-0 -12919-1 0  9996,2 53891  53.2165  40.9094 0001409  41.0201  39.1533 15.66644707  7184,6746.65,91.916,369.465,367.564,0.0
53891.0,STARLINK-5041,PAYLOAD,2022-11-07 06:00:00,15.65545439,0.0001215,53.217,38.8671,55.1144,215.5216,-0.012204,-0.01130736,0.0,0 STARLINK-5041,1 53891U 22119F   22311.25001157 -.01130736  00000-0 -12204-1 0  9994,2 53891  53.2170  38.8671 0001215  55.1144 215.5216 15.65545439  7240,6749.808000000001,91.981,372.49300000000005,370.852,0.0
53891.0,STARLINK-5041,PAYLOAD,2022-11-07 22:00:00,15.63922073,0.0001124,53.2175,35.6092,62.2491,5.8797,-0.01311,-0.01137447,0.0,0 STARLINK-5041,1 53891U 22119F   22311.91667824 -.01137447  00000-0 -13110-1 0  9999,2 53891  53.2175  35.6092 0001124  62.2491   5.8797 15.63922073  7357,6754.478,92.076,377.102,375.583,0.0
53891.0,STARLINK-5041,PAYLOAD,2022-11-08 12:00:00,15.62514451,0.00013,53.2175,32.7669,51.3911,61.3268,-0.014145,-0.01158585,0.0,0 STARLINK-5041,1 53891U 22119F   22312.50001157 -.01158585  00000-0 -14145-1 0  9991,2 53891  53.2175  32.7669 0001300  51.3911  61.3268 15.62514451  7443,6758.534000000002,92.159,381.277,379.52,0.0
53891.0,STARLINK-5041,PAYLOAD,2022-11-08 14:00:01,15.62295598,0.0001327,53.2177,32.361,60.8419,160.8677,-0.013985,-0.01137837,0.0,0 STARLINK-5041,1 53891U 22119F   22312.58334491 -.01137837  00000-0 -13985-1 0  9997,2 53891  53.2177  32.3610 0001327  60.8419 160.8677 15.62295598  1300,6759.165,92.172,381.927,380.133,0.0
53891.0,STARLINK-5041,PAYLOAD,2022-11-08 22:00:00,15.61486866,0.000137,53.2172,30.7378,44.1387,252.8943,-0.014551,-0.01146146,0.0,0 STARLINK-5041,1 53891U 22119F   22312.91667824 -.01146146  00000-0 -14551-1 0  9996,2 53891  53.2172  30.7378 0001370  44.1387 252.8943 15.61486866  1302,6761.498000000001,92.22,384.29,382.437,0.0
53891.0,STARLINK-5041,PAYLOAD,2022-11-09 12:00:00,15.60093278,0.0001325,53.2171,27.9055,47.5833,288.8926,-0.015824,-0.01177407,0.0,0 STARLINK-5041,1 53891U 22119F   22313.50001157 -.01177407  00000-0 -15824-1 0  9991,2 53891  53.2171  27.9055 0001325  47.5833 288.8926 15.60093278  7591,6765.524,92.302,388.286,386.49300000000005,0.0
53891.0,STARLINK-5041,PAYLOAD,2022-11-09 14:00:01,15.59879006,0.0001493,53.2173,27.5015,45.6722,39.0642,-0.015833,-0.01169327,0.0,0 STARLINK-5041,1 53891U 22119F   22313.58334491 -.01169327  00000-0 -15833-1 0  9991,2 53891  53.2173  27.5015 0001493  45.6722  39.0642 15.59879006  1300,6766.144,92.315,389.019,386.999,0.0
53891.0,STARLINK-5041,PAYLOAD,2022-11-09 22:00:01,15.5903644,0.0001668,53.2172,25.8836,41.9085,115.2996,-0.015768,-0.01131492,0.0,0 STARLINK-5041,1 53891U 22119F   22313.91668981 -.01131492  00000-0 -15768-1 0  9991,2 53891  53.2172  25.8836 0001668  41.9085 115.2996 15.59036440  1302,6768.581999999999,92.365,391.576,389.318,0.0
53891.0,STARLINK-5041,PAYLOAD,2022-11-10 14:00:01,15.57435271,0.0001315999999999,53.2174,22.6592,47.8366,251.1395,-0.017297,-0.01164258,0.0,0 STARLINK-5041,1 53891U 22119F   22314.58334491 -.01164258  00000-0 -17297-1 0  9996,2 53891  53.2174  22.6592 0001316  47.8366 251.1395 15.57435271  1301,6773.22,92.46,395.976,394.193,0.0
53891.0,STARLINK-5041,PAYLOAD,2022-11-10 20:00:01,15.56801592,0.0001377,53.2174,21.4491,51.0949,210.08,-0.017225,-0.0113516,0.0,0 STARLINK-5041,1 53891U 22119F   22314.83334491 -.01135160  00000-0 -17225-1 0  9995,2 53891  53.2174  21.4491 0001377  51.0949 210.0800 15.56801592  7805,6775.058000000001,92.497,397.856,395.99,0.0
53891.0,STARLINK-5041,PAYLOAD,2022-11-10 22:00:00,15.5659679,0.0001499,53.2174,21.0467,33.1661,335.282,-0.017321,-0.01133015,0.0,0 STARLINK-5041,1 53891U 22119F   22314.91667824 -.01133015  00000-0 -17321-1 0  9997,2 53891  53.2174  21.0467 0001499  33.1661 335.2820 15.56596790  1303,6775.651999999999,92.51,398.533,396.501,0.0
